[{"OBJECT_NAME":"CREW DRAGON 12","OBJECT_ID":"2026-031A","EPOCH":"2026-07-13T18:23:41.212608","MEAN_MOTION":15.49001429,"ECCENTRICITY":0.0006711,"INCLINATION":51.6307,"RA_OF_ASC_NODE":168.5527,"ARG_OF_PERICENTER":292.2587,"MEAN_ANOMALY":67.7689,"EPHEMERIS_TYPE":0,"CLASSIFICATION_TYPE":"U","NORAD_CAT_ID":67796,"ELEMENT_SET_NO":999,"REV_AT_EPOCH":57579,"BSTAR":8.0956e-5,"MEAN_MOTION_DOT":4.013e-5,"MEAN_MOTION_DDOT":0},{"OBJECT_NAME":"PROGRESS-MS 33","OBJECT_ID":"2026-058A","EPOCH":"2026-07-13T18:23:41.212608","MEAN_MOTION":15.49001429,"ECCENTRICITY":0.0006711,"INCLINATION":51.6307,"RA_OF_ASC_NODE":168.5527,"ARG_OF_PERICENTER":292.2587,"MEAN_ANOMALY":67.7689,"EPHEMERIS_TYPE":0,"CLASSIFICATION_TYPE":"U","NORAD_CAT_ID":68319,"ELEMENT_SET_NO":999,"REV_AT_EPOCH":57583,"BSTAR":8.0956e-5,"MEAN_MOTION_DOT":4.013e-5,"MEAN_MOTION_DDOT":0},{"OBJECT_NAME":"CYGNUS NG-24","OBJECT_ID":"2026-079A","EPOCH":"2026-07-13T07:33:22.422240","MEAN_MOTION":15.48997295,"ECCENTRICITY":0.0006687,"INCLINATION":51.6305,"RA_OF_ASC_NODE":170.7871,"ARG_OF_PERICENTER":290.3592,"MEAN_ANOMALY":69.6678,"EPHEMERIS_TYPE":0,"CLASSIFICATION_TYPE":"U","NORAD_CAT_ID":68689,"ELEMENT_SET_NO":999,"REV_AT_EPOCH":68185,"BSTAR":8.1266333e-5,"MEAN_MOTION_DOT":4.029e-5,"MEAN_MOTION_DDOT":0},{"OBJECT_NAME":"PROGRESS-MS 34","OBJECT_ID":"2026-093A","EPOCH":"2026-07-13T07:33:22.422240","MEAN_MOTION":15.48997295,"ECCENTRICITY":0.0006687,"INCLINATION":51.6305,"RA_OF_ASC_NODE":170.7871,"ARG_OF_PERICENTER":290.3592,"MEAN_ANOMALY":69.6678,"EPHEMERIS_TYPE":0,"CLASSIFICATION_TYPE":"U","NORAD_CAT_ID":68837,"ELEMENT_SET_NO":999,"REV_AT_EPOCH":69958,"BSTAR":8.1266333e-5,"MEAN_MOTION_DOT":4.029e-5,"MEAN_MOTION_DDOT":0},{"OBJECT_NAME":"TIANZHOU-10","OBJECT_ID":"2026-102A","EPOCH":"2026-07-13T13:09:41.370336","MEAN_MOTION":15.58055023,"ECCENTRICITY":0.00023088,"INCLINATION":41.4687,"RA_OF_ASC_NODE":161.8154,"ARG_OF_PERICENTER":295.5855,"MEAN_ANOMALY":64.4744,"EPHEMERIS_TYPE":0,"CLASSIFICATION_TYPE":"U","NORAD_CAT_ID":69049,"ELEMENT_SET_NO":999,"REV_AT_EPOCH":29661,"BSTAR":1.4285014e-5,"MEAN_MOTION_DOT":7.74e-6,"MEAN_MOTION_DDOT":0},{"OBJECT_NAME":"SHENZHOU-23 (SZ-23)","OBJECT_ID":"2026-113A","EPOCH":"2026-07-13T13:09:41.370336","MEAN_MOTION":15.58055023,"ECCENTRICITY":0.00023088,"INCLINATION":41.4687,"RA_OF_ASC_NODE":161.8154,"ARG_OF_PERICENTER":295.5855,"MEAN_ANOMALY":64.4744,"EPHEMERIS_TYPE":0,"CLASSIFICATION_TYPE":"U","NORAD_CAT_ID":69180,"ELEMENT_SET_NO":999,"REV_AT_EPOCH":29605,"BSTAR":1.4285014e-5,"MEAN_MOTION_DOT":7.74e-6,"MEAN_MOTION_DDOT":0}]
