CREW DRAGON 12          
1 67796U 26031A   26194.76644922  .00004013  00000+0  80956-4 0  9998
2 67796  51.6307 168.5527 0006711 292.2587  67.7689 15.49001429575794
PROGRESS-MS 33          
1 68319U 26058A   26194.76644922  .00004013  00000+0  80956-4 0  9999
2 68319  51.6307 168.5527 0006711 292.2587  67.7689 15.49001429575831
CYGNUS NG-24            
1 68689U 26079A   26194.31484285  .00004029  00000+0  81266-4 0  9999
2 68689  51.6305 170.7871 0006687 290.3592  69.6678 15.48997295681856
PROGRESS-MS 34          
1 68837U 26093A   26194.31484285  .00004029  00000+0  81266-4 0  9990
2 68837  51.6305 170.7871 0006687 290.3592  69.6678 15.48997295699580
TIANZHOU-10             
1 69049U 26102A   26194.54839549  .00000774  00000+0  14285-4 0  9999
2 69049  41.4687 161.8154 0002308 295.5855  64.4744 15.58055023296615
SHENZHOU-23 (SZ-23)     
1 69180U 26113A   26194.54839549  .00000774  00000+0  14285-4 0  9997
2 69180  41.4687 161.8154 0002308 295.5855  64.4744 15.58055023296059
